OBJECT_NAME,OBJECT_ID,EPOCH,MEAN_MOTION,ECCENTRICITY,INCLINATION,RA_OF_ASC_NODE,ARG_OF_PERICENTER,MEAN_ANOMALY,EPHEMERIS_TYPE,CLASSIFICATION_TYPE,NORAD_CAT_ID,ELEMENT_SET_NO,REV_AT_EPOCH,BSTAR,MEAN_MOTION_DOT,MEAN_MOTION_DDOT
STARLINK-3740,2022-041E,2024-01-20T04:35:37.357440,15.08845191,.0001477,53.2187,8.4233,101.1474,258.9685,0,U,52265,999,9668,.52288E-4,.544E-5,0
STARLINK-3739,2022-041F,2024-01-20T06:05:42.206208,15.08846828,.0001476,53.2171,8.1415,109.5158,250.5993,0,U,52266,999,9669,.6732E-4,.784E-5,0
STARLINK-3748,2022-041G,2024-01-20T04:25:01.659072,15.08837999,.0001467,53.2169,8.4522,82.9033,277.2126,0,U,52267,999,9668,.86894E-4,.1095E-4,0
STARLINK-3746,2022-041H,2024-01-20T05:33:52.723872,15.08862648,.0001507,53.2191,8.1597,105.2697,254.8462,0,U,52268,999,9669,.15923E-3,.2249E-4,0
STARLINK-3791,2022-041J,2024-01-20T05:55:06.389472,15.08842822,.0001493,53.2178,8.1676,93.3223,266.7940,0,U,52269,999,9669,.62839E-4,.712E-5,0
STARLINK-3804,2022-041K,2024-01-20T05:44:30.703200,15.08843390,.000143,53.2180,8.2305,93.3593,266.7563,0,U,52270,999,9669,-.13426E-4,-.502E-5,0
STARLINK-3788,2022-041L,2024-01-20T04:14:25.422432,15.08831351,.0002169,53.2172,8.4835,122.6923,237.4279,0,U,52271,999,9668,.23392E-3,.3436E-4,0
STARLINK-3781,2022-041M,2024-01-20T05:40:35.410080,15.08848100,.0001434,53.2177,8.2582,104.8998,255.2153,0,U,52272,999,9669,.91056E-4,.1162E-4,0
STARLINK-3782,2022-041N,2024-01-20T04:59:34.751040,15.08855264,.0001735,53.2187,358.7340,115.0094,245.1079,0,U,52273,999,9682,-.46169E-4,-.1023E-4,0
STARLINK-3790,2022-041P,2024-01-20T05:28:36.556032,15.08838176,.0001379,53.2180,8.2596,94.8062,265.3087,0,U,52274,999,9669,.39038E-4,.333E-5,0
STARLINK-3784,2022-041Q,2024-01-20T05:39:12.555072,15.08850976,.0001579,53.2161,8.2228,93.6551,266.4621,0,U,52275,999,9669,.25164E-3,.372E-4,0
STARLINK-3778,2022-041R,2024-01-20T05:23:18.769920,15.08844664,.0001438,53.2174,8.2749,99.8671,260.2483,0,U,52276,999,9669,.91178E-4,.1164E-4,0
STARLINK-3780,2022-041T,2024-01-20T06:53:23.724096,15.08847785,.0001436,53.2175,7.9938,93.7069,266.4087,0,U,52278,999,9670,.17003E-3,.242E-4,0
STARLINK-3686,2022-041U,2024-01-20T16:00:00.999936,15.56697788,.0011063,53.2229,316.7126,164.5325,133.9916,0,U,52279,999,580,.45613E-2,.346378E-2,0
STARLINK-3764,2022-041V,2024-01-20T08:12:53.322912,15.08847320,.0001416,53.2183,7.7441,94.0924,266.0230,0,U,52280,999,9671,.11613E-4,-.103E-5,0
STARLINK-3779,2022-041W,2024-01-20T05:24:41.651712,15.08841457,.0001519,53.2185,8.2708,101.1392,258.9771,0,U,52281,999,9669,.54914E-4,.586E-5,0
STARLINK-3783,2022-041X,2024-01-20T04:52:50.775744,15.08842150,.0001551,53.2178,358.3743,85.6838,274.4332,0,U,52282,999,9682,.47815E-4,.473E-5,0
STARLINK-3789,2022-041Y,2024-01-20T06:48:06.065856,15.08845692,.000153,53.2181,8.0126,101.5764,258.5400,0,U,52283,999,9670,.12494E-3,.1701E-4,0
STARLINK-3561,2022-041Z,2024-01-20T07:53:00.564000,15.08848784,.0001624,53.2177,357.8102,72.5190,287.5980,0,U,52284,999,9684,.11827E-3,.1595E-4,0
STARLINK-3775,2022-041AA,2024-01-20T08:18:11.155680,15.08848828,.0001549,53.2170,7.7279,93.8047,266.3122,0,U,52285,999,9671,.22665E-3,.3322E-4,0
STARLINK-3802,2022-041AB,2024-01-20T07:42:24.764544,15.08847033,.0001577,53.2174,357.8434,97.7873,262.3299,0,U,52286,999,9806,.86273E-4,.1086E-4,0
STARLINK-3822,2022-041AC,2024-01-20T08:07:35.537664,15.08840148,.0001497,53.2183,7.7589,94.5764,265.5399,0,U,52287,999,9671,.57246E-4,.623E-5,0
STARLINK-3776,2022-041AD,2024-01-20T07:37:07.060512,15.08843278,.0001517,53.2175,357.8602,101.7529,258.3633,0,U,52288,999,9684,.12695E-3,.1733E-4,0
STARLINK-3751,2022-041AE,2024-01-20T07:58:18.198048,15.08853733,.0001468,53.2191,357.7931,113.7265,246.3881,0,U,52289,999,9684,.15144E-3,.2124E-4,0
STARLINK-3772,2022-041AF,2024-01-20T07:22:36.095808,15.08844502,.0001527,53.2185,357.9002,94.5504,265.5663,0,U,52290,999,9684,.8344E-4,.104E-4,0
STARLINK-3773,2022-041AG,2024-01-20T07:47:42.651744,15.08848427,.0001567,53.2175,357.8277,70.4645,289.6516,0,U,52291,999,9684,.12875E-3,.1762E-4,0
STARLINK-3753,2022-041AH,2024-01-20T07:15:55.122912,15.08848349,.0001666,53.2193,357.9225,108.6736,251.4437,0,U,52292,999,9684,.69811E-4,.823E-5,0
STARLINK-3771,2022-041AJ,2024-01-20T07:33:11.794176,15.08846132,.0001565,53.2181,357.8796,96.3327,263.7844,0,U,52293,999,9684,.12594E-3,.1717E-4,0
STARLINK-3777,2022-041AK,2024-01-20T03:59:51.216864,15.08840908,.000183,53.2182,358.5334,113.0623,247.0562,0,U,52294,999,9682,.43394E-4,.403E-5,0
STARLINK-3765,2022-041AL,2024-01-20T07:26:30.997536,15.08845836,.0001545,53.2183,357.8869,113.5300,246.5855,0,U,52295,999,9684,.12841E-3,.1757E-4,0
