STARLINK-3740           
1 52265U 22041E   24020.19140460  .00000544  00000+0  52288-4 0  9993
2 52265  53.2187   8.4233 0001477 101.1474 258.9685 15.08845191 96689
STARLINK-3739           
1 52266U 22041F   24020.25396072  .00000784  00000+0  67320-4 0  9992
2 52266  53.2171   8.1415 0001476 109.5158 250.5993 15.08846828 96691
STARLINK-3748           
1 52267U 22041G   24020.18404698  .00001095  00000+0  86894-4 0  9992
2 52267  53.2169   8.4522 0001467  82.9033 277.2126 15.08837999 96689
STARLINK-3746           
1 52268U 22041H   24020.23186023  .00002249  00000+0  15923-3 0  9994
2 52268  53.2191   8.1597 0001507 105.2697 254.8462 15.08862648 96698
STARLINK-3791           
1 52269U 22041J   24020.24660173  .00000712  00000+0  62839-4 0  9991
2 52269  53.2178   8.1676 0001493  93.3223 266.7940 15.08842822 96693
STARLINK-3804           
1 52270U 22041K   24020.23924425 -.00000502  00000+0 -13426-4 0  9992
2 52270  53.2180   8.2305 0001430  93.3593 266.7563 15.08843390 96691
STARLINK-3788           
1 52271U 22041L   24020.17668313  .00003436  00000+0  23392-3 0  9996
2 52271  53.2172   8.4835 0002169 122.6923 237.4279 15.08831351 96688
STARLINK-3781           
1 52272U 22041M   24020.23652095  .00001162  00000+0  91056-4 0  9991
2 52272  53.2177   8.2582 0001434 104.8998 255.2153 15.08848100 96699
STARLINK-3782           
1 52273U 22041N   24020.20804110 -.00001023  00000+0 -46169-4 0  9999
2 52273  53.2187 358.7340 0001735 115.0094 245.1079 15.08855264 96820
STARLINK-3790           
1 52274U 22041P   24020.22820088  .00000333  00000+0  39038-4 0  9992
2 52274  53.2180   8.2596 0001379  94.8062 265.3087 15.08838176 96698
STARLINK-3784           
1 52275U 22041Q   24020.23556198  .00003720  00000+0  25164-3 0  9999
2 52275  53.2161   8.2228 0001579  93.6551 266.4621 15.08850976 96690
STARLINK-3778           
1 52276U 22041R   24020.22452280  .00001164  00000+0  91178-4 0  9995
2 52276  53.2174   8.2749 0001438  99.8671 260.2483 15.08844664 96693
STARLINK-3780           
1 52278U 22041T   24020.28708014  .00002420  00000+0  17003-3 0  9992
2 52278  53.2175   7.9938 0001436  93.7069 266.4087 15.08847785 96701
STARLINK-3686           
1 52279U 22041U   24020.66667824  .00346378  00000+0  45613-2 0  9998
2 52279  53.2229 316.7126 0011063 164.5325 133.9916 15.56697788  5800
STARLINK-3764           
1 52280U 22041V   24020.34228383 -.00000103  00000+0  11613-4 0  9997
2 52280  53.2183   7.7441 0001416  94.0924 266.0230 15.08847320 96714
STARLINK-3779           
1 52281U 22041W   24020.22548208  .00000586  00000+0  54914-4 0  9991
2 52281  53.2185   8.2708 0001519 101.1392 258.9771 15.08841457 96694
STARLINK-3783           
1 52282U 22041X   24020.20336546  .00000473  00000+0  47815-4 0  9997
2 52282  53.2178 358.3743 0001551  85.6838 274.4332 15.08842150 96824
STARLINK-3789           
1 52283U 22041Y   24020.28340354  .00001701  00000+0  12494-3 0  9997
2 52283  53.2181   8.0126 0001530 101.5764 258.5400 15.08845692 96706
STARLINK-3561           
1 52284U 22041Z   24020.32847875  .00001595  00000+0  11827-3 0  9993
2 52284  53.2177 357.8102 0001624  72.5190 287.5980 15.08848784 96840
STARLINK-3775           
1 52285U 22041AA  24020.34596245  .00003322  00000+0  22665-3 0  9990
2 52285  53.2170   7.7279 0001549  93.8047 266.3122 15.08848828 96711
STARLINK-3802           
1 52286U 22041AB  24020.32111996  .00001086  00000+0  86273-4 0  9996
2 52286  53.2174 357.8434 0001577  97.7873 262.3299 15.08847033 96841
STARLINK-3822           
1 52287U 22041AC  24020.33860576  .00000623  00000+0  57246-4 0  9997
2 52287  53.2183   7.7589 0001497  94.5764 265.5399 15.08840148 96711
STARLINK-3776           
1 52288U 22041AD  24020.31744283  .00001733  00000+0  12695-3 0  9993
2 52288  53.2175 357.8602 0001517 101.7529 258.3633 15.08843278 96843
STARLINK-3751           
1 52289U 22041AE  24020.33215507  .00002124  00000+0  15144-3 0  9995
2 52289  53.2191 357.7931 0001468 113.7265 246.3881 15.08853733 96840
STARLINK-3772           
1 52290U 22041AF  24020.30736222  .00001040  00000+0  83440-4 0  9997
2 52290  53.2185 357.9002 0001527  94.5504 265.5663 15.08844502 96849
STARLINK-3773           
1 52291U 22041AG  24020.32479921  .00001762  00000+0  12875-3 0  9994
2 52291  53.2175 357.8277 0001567  70.4645 289.6516 15.08848427 96849
STARLINK-3753           
1 52292U 22041AH  24020.30272133  .00000823  00000+0  69811-4 0  9999
2 52292  53.2193 357.9225 0001666 108.6736 251.4437 15.08848349 96841
STARLINK-3771           
1 52293U 22041AJ  24020.31471984  .00001717  00000+0  12594-3 0  9994
2 52293  53.2181 357.8796 0001565  96.3327 263.7844 15.08846132 96844
STARLINK-3777           
1 52294U 22041AK  24020.16656501  .00000403  00000+0  43394-4 0  9992
2 52294  53.2182 358.5334 0001830 113.0623 247.0562 15.08840908 96828
STARLINK-3765           
1 52295U 22041AL  24020.31008099  .00001757  00000+0  12841-3 0  9998
2 52295  53.2183 357.8869 0001545 113.5300 246.5855 15.08845836 96841
